ALOS-2                  
1 39766U 14029A   26155.28891218  .00001377  00000+0  19112-3 0  9999
2 39766  97.9216 252.6372 0001598  89.6934 270.4461 14.79484461649670
KAZEOSAT 2              
1 40010U 14033A   26155.29679920  .00000259  00000+0  35789-4 0  9990
2 40010  97.5408 355.5894 0009055  12.0802 348.0630 14.85452072647044
HODOYOSHI-4             
1 40011U 14033B   26155.32559345  .00001296  00000+0  14586-3 0  9996
2 40011  97.5447 340.7689 0023553 352.0357   8.0483 14.88095899646891
DEIMOS-2                
1 40013U 14033D   26155.25425884  .00001628  00000+0  15910-3 0  9991
2 40013  97.5837  30.1964 0001894  57.7184 302.4220 14.93686175635799
HODOYOSHI-3             
1 40015U 14033F   26155.04898022  .00001319  00000+0  15788-3 0  9998
2 40015  97.6408 318.6198 0033789  40.0318 320.3379 14.85360480645672
SPOT 7                  
1 40053U 14034A   26155.30559274  .00000531  00000+0  11769-3 0  9993
2 40053  98.0630 218.1283 0001163  85.4559 274.6775 14.60946873635259
SKYSAT-B                
1 40072U 14037D   26154.60898846  .00001643  00000+0  18569-3 0  9990
2 40072  98.3831 112.8009 0004889 336.4365  23.6625 14.87990525643947
WORLDVIEW-3 (WV-3)      
1 40115U 14048A   26155.23025171  .00001087  00000+0  13370-3 0  9990
2 40115  97.8567 230.2420 0001932  45.9945 314.1428 14.85000167639989
GAOFEN-2                
1 40118U 14049A   26155.27087184  .00000796  00000+0  10997-3 0  9998
2 40118  98.0110 219.4897 0005930 278.0814  81.9725 14.80884721637328
YAOGAN-21               
1 40143U 14053A   26155.18148406  .00008600  00000+0  33491-3 0  9992
2 40143  97.1476 195.9772 0009488 131.1588 229.0471 15.26174319652977
YAOGAN-22               
1 40275U 14063A   26155.02885433 -.00000062  00000+0 -39117-4 0  9998
2 40275 100.7708 306.0844 0006032 215.5941 144.4768 13.15530690558089
ASNARO                  
1 40298U 14070A   26155.25091823  .00007006  00000+0  32907-3 0  9990
2 40298  97.3451 231.7161 0004051 166.3538 193.7807 15.19916487642049
YAOGAN-24               
1 40310U 14072A   26155.27136543  .00000646  00000+0  10102-3 0  9994
2 40310  98.1476 292.5008 0012903 309.2288  50.7775 14.76204724621814
CBERS 4                 
1 40336U 14079A   26155.28174191 -.00000006  00000+0  12465-4 0  9997
2 40336  98.3534 212.5174 0002056  78.1177 282.0240 14.35505044602104
YAOGAN-26               
1 40362U 14088A   26155.26221549  .00032072  00000+0  63882-3 0  9999
2 40362  97.0646 155.7789 0006570  95.3836 264.8165 15.46818891635707
SMAP                    
1 40376U 15003A   26155.29346751  .00000571  00000+0  11957-3 0  9993
2 40376  98.1276 162.5708 0001260  90.7064 269.4282 14.63355068605734
KOMPSAT-3A              
1 40536U 15014A   26155.23204690  .00024915  00000+0  36973-3 0  9995
2 40536  97.6888 145.6534 0055367 221.9795 137.7208 15.53388953619807
SENTINEL-2A             
1 40697U 15028A   26155.27762948  .00000070  00000+0  43338-4 0  9997
2 40697  98.5684 230.3117 0001055  86.8422 273.2881 14.30819708571887
GAOFEN-8                
1 40701U 15030A   26155.26984166  .00016526  00000+0  34647-3 0  9998
2 40701  97.6906 347.8694 0007804 236.1557 123.8949 15.45456790609456
CARBONITE 1 (CBNT-1)    
1 40718U 15032D   26155.30024012  .00001231  00000+0  15546-3 0  9992
2 40718  97.6500 333.9067 0014121 343.0606  17.0135 14.83543822587435
YAOGAN-27               
1 40878U 15040A   26155.25705959  .00000232  00000+0  72284-3 0  9990
2 40878 100.1147 142.2015 0007431 243.0803 116.9552 13.16069212515969
GAOFEN-9 01             
1 40894U 15047A   26155.30915924  .00001219  00000+0  15588-3 0  9996
2 40894  97.6286 191.5887 0027362 179.1280 180.9987 14.82858979578285
YAOGAN-28               
1 41026U 15064A   26155.28513395  .00007752  00000+0  29268-3 0  9994
2 41026  97.3065 293.8124 0009558 231.1937 128.8450 15.27245716588714
YAOGAN-29               
1 41038U 15069A   26155.29136447  .00000155  00000+0  25722-4 0  9994
2 41038  98.0026 183.9033 0002941  75.0818 285.0721 14.83072417568714
KENT RIDGE 1            
1 41167U 15077B   26151.92243609  .00004809  00000+0  16665-3 0  9996
2 41167  14.9811  26.9327 0008386   8.7098 351.3369 15.23022815578617
GAOFEN-4                
1 41194U 15083A   26155.01562769 -.00000323  00000+0  00000+0 0  9998
2 41194   0.3238  83.8120 0004292 109.3271 170.6585  1.00270622 38394
JASON-3                 
1 41240U 16002A   26155.26477438 -.00000068  00000+0 -23165-4 0  9996
2 41240  66.0389 153.0034 0008599 273.2828  86.7207 12.87627718485583
SENTINEL-3A             
1 41335U 16011A   26155.31266942  .00000148  00000+0  79338-4 0  9993
2 41335  98.6251 222.8807 0001303 105.8790 254.2534 14.26736386536224
ZIYUAN 3-02 (ZY 3-02)   
1 41556U 16033A   26155.29874885  .00006525  00000+0  29374-3 0  9999
2 41556  97.3834 231.3192 0011982 340.3402  19.7370 15.21350913556020
CARTOSAT-2C             
1 41599U 16040A   26155.21703358  .00003523  00000+0  17043-3 0  9997
2 41599  97.4489 215.3722 0009517 172.3534 187.7848 15.19208934551747
