OBJECT_NAME,OBJECT_ID,EPOCH,MEAN_MOTION,ECCENTRICITY,INCLINATION,RA_OF_ASC_NODE,ARG_OF_PERICENTER,MEAN_ANOMALY,EPHEMERIS_TYPE,CLASSIFICATION_TYPE,NORAD_CAT_ID,ELEMENT_SET_NO,REV_AT_EPOCH,BSTAR,MEAN_MOTION_DOT,MEAN_MOTION_DDOT
ALOS-2,2014-029A,2026-06-04T06:56:02.012352,14.79484461,.00015984,97.9216,252.6372,89.6934,270.4461,0,U,39766,999,64967,.19112008E-3,.1377E-4,0
KAZEOSAT 2,2014-033A,2026-06-04T07:07:23.450880,14.85452072,.00090556,97.5408,355.5894,12.0802,348.0630,0,U,40010,999,64704,.35789336E-4,.259E-5,0
HODOYOSHI-4,2014-033B,2026-06-04T07:48:51.274080,14.88095899,.00235538,97.5447,340.7689,352.0357,8.0483,0,U,40011,999,64689,.14586474E-3,.1296E-4,0
DEIMOS-2,2014-033D,2026-06-04T06:06:07.963776,14.93686175,.00018942,97.5837,30.1964,57.7184,302.4220,0,U,40013,999,63579,.15910318E-3,.1628E-4,0
HODOYOSHI-3,2014-033F,2026-06-04T01:10:31.891008,14.85360480,.00337895,97.6408,318.6198,40.0318,320.3379,0,U,40015,999,64567,.15788012E-3,.1319E-4,0
SPOT 7,2014-034A,2026-06-04T07:20:03.212736,14.60946873,.00011637,98.0630,218.1283,85.4559,274.6775,0,U,40053,999,63525,.11769065E-3,.531E-5,0
SKYSAT-B,2014-037D,2026-06-03T14:36:56.602944,14.87990525,.0004889,98.3831,112.8009,336.4365,23.6625,0,U,40072,999,64394,.18569438E-3,.1643E-4,0
WORLDVIEW-3 (WV-3),2014-048A,2026-06-04T05:31:33.747744,14.85000167,.00019325,97.8567,230.2420,45.9945,314.1428,0,U,40115,999,63998,.13369678E-3,.1087E-4,0
GAOFEN-2,2014-049A,2026-06-04T06:30:03.326976,14.80884721,.00059302,98.0110,219.4897,278.0814,81.9725,0,U,40118,999,63732,.10996949E-3,.796E-5,0
YAOGAN-21,2014-053A,2026-06-04T04:21:20.222784,15.26174319,.00094888,97.1476,195.9772,131.1588,229.0471,0,U,40143,999,65297,.33490992E-3,.86E-4,0
YAOGAN-22,2014-063A,2026-06-04T00:41:33.014112,13.15530690,.00060325,100.7708,306.0844,215.5941,144.4768,0,U,40275,999,55808,-.39117131E-4,-.62E-6,0
ASNARO,2014-070A,2026-06-04T06:01:19.335072,15.19916487,.00040513,97.3451,231.7161,166.3538,193.7807,0,U,40298,999,64204,.32907243E-3,.7006E-4,0
YAOGAN-24,2014-072A,2026-06-04T06:30:45.973152,14.76204724,.00129037,98.1476,292.5008,309.2288,50.7775,0,U,40310,999,62181,.10101555E-3,.646E-5,0
CBERS 4,2014-079A,2026-06-04T06:45:42.501024,14.35505044,.00020561,98.3534,212.5174,78.1177,282.0240,0,U,40336,999,60210,.1246505E-4,-.6E-7,0
YAOGAN-26,2014-088A,2026-06-04T06:17:35.418336,15.46818891,.00065704,97.0646,155.7789,95.3836,264.8165,0,U,40362,999,63570,.63881732E-3,.32072E-3,0
SMAP,2015-003A,2026-06-04T07:02:35.592864,14.63355068,.000126,98.1276,162.5708,90.7064,269.4282,0,U,40376,999,60573,.11957265E-3,.571E-5,0
KOMPSAT-3A,2015-014A,2026-06-04T05:34:08.852160,15.53388953,.00553671,97.6888,145.6534,221.9795,137.7208,0,U,40536,999,61980,.36972753E-3,.24915E-3,0
SENTINEL-2A,2015-028A,2026-06-04T06:39:47.187072,14.30819708,.00010557,98.5684,230.3117,86.8422,273.2881,0,U,40697,999,57188,.43337503E-4,.7E-6,0
GAOFEN-8,2015-030A,2026-06-04T06:28:34.319424,15.45456790,.00078047,97.6906,347.8694,236.1557,123.8949,0,U,40701,999,60945,.34647161E-3,.16526E-3,0
CARBONITE 1 (CBNT-1),2015-032D,2026-06-04T07:12:20.746368,14.83543822,.00141214,97.6500,333.9067,343.0606,17.0135,0,U,40718,999,58743,.15545852E-3,.1231E-4,0
YAOGAN-27,2015-040A,2026-06-04T06:10:09.948576,13.16069212,.00074319,100.1147,142.2015,243.0803,116.9552,0,U,40878,999,51596,.72284028E-3,.232E-5,0
GAOFEN-9 01,2015-047A,2026-06-04T07:25:11.358336,14.82858979,.00273629,97.6286,191.5887,179.1280,180.9987,0,U,40894,999,57828,.15587925E-3,.1219E-4,0
YAOGAN-28,2015-064A,2026-06-04T06:50:35.573280,15.27245716,.00095583,97.3065,293.8124,231.1937,128.8450,0,U,41026,999,58871,.29267709E-3,.7752E-4,0
YAOGAN-29,2015-069A,2026-06-04T06:59:33.890208,14.83072417,.00029411,98.0026,183.9033,75.0818,285.0721,0,U,41038,999,56871,.25722285E-4,.155E-5,0
KENT RIDGE 1,2015-077B,2026-05-31T22:08:18.478176,15.23022815,.00083865,14.9811,26.9327,8.7098,351.3369,0,U,41167,999,57861,.16664618E-3,.4809E-4,0
GAOFEN-4,2015-083A,2026-06-04T00:22:30.232416,1.00270622,.00042923,0.3238,83.8120,109.3271,170.6585,0,U,41194,999,3839,0,-.323E-5,0
JASON-3,2016-002A,2026-06-04T06:21:16.506432,12.87627718,.0008599,66.0389,153.0034,273.2828,86.7207,0,U,41240,999,48558,-.23165239E-4,-.68E-6,0
SENTINEL-3A,2016-011A,2026-06-04T07:30:14.637888,14.26736386,.00013034,98.6251,222.8807,105.8790,254.2534,0,U,41335,999,53622,.79338444E-4,.148E-5,0
ZIYUAN 3-02 (ZY 3-02),2016-033A,2026-06-04T07:10:11.900640,15.21350913,.00119826,97.3834,231.3192,340.3402,19.7370,0,U,41556,999,55602,.29374438E-3,.6525E-4,0
CARTOSAT-2C,2016-040A,2026-06-04T05:12:31.701312,15.19208934,.00095176,97.4489,215.3722,172.3534,187.7848,0,U,41599,999,55174,.17043242E-3,.3523E-4,0
